[{"OBJECT_NAME":"FENGYUN 1C DEB","OBJECT_ID":"1999-025CBS","EPOCH":"2026-03-03T18:59:00.398976","MEAN_MOTION":14.27455606,"ECCENTRICITY":0.0100254,"INCLINATION":98.5092,"RA_OF_ASC_NODE":66.9619,"ARG_OF_PERICENTER":303.9676,"MEAN_ANOMALY":55.2008,"EPHEMERIS_TYPE":0,"CLASSIFICATION_TYPE":"U","NORAD_CAT_ID":31660,"ELEMENT_SET_NO":999,"REV_AT_EPOCH":9072,"BSTAR":0.00098643,"MEAN_MOTION_DOT":2.511e-5,"MEAN_MOTION_DDOT":0},{"OBJECT_NAME":"FENGYUN 1C DEB","OBJECT_ID":"1999-025CBT","EPOCH":"2026-03-03T04:10:53.759712","MEAN_MOTION":14.26073036,"ECCENTRICITY":0.0055349,"INCLINATION":98.8514,"RA_OF_ASC_NODE":147.0882,"ARG_OF_PERICENTER":352.8129,"MEAN_ANOMALY":71.603,"EPHEMERIS_TYPE":0,"CLASSIFICATION_TYPE":"U","NORAD_CAT_ID":31661,"ELEMENT_SET_NO":999,"REV_AT_EPOCH":96859,"BSTAR":0.0012447881,"MEAN_MOTION_DOT":2.978e-5,"MEAN_MOTION_DDOT":0},{"OBJECT_NAME":"FENGYUN 1C DEB","OBJECT_ID":"1999-025CBV","EPOCH":"2026-03-02T12:38:15.586656","MEAN_MOTION":14.76889393,"ECCENTRICITY":0.0189178,"INCLINATION":98.8384,"RA_OF_ASC_NODE":341.9537,"ARG_OF_PERICENTER":346.9452,"MEAN_ANOMALY":12.6895,"EPHEMERIS_TYPE":0,"CLASSIFICATION_TYPE":"U","NORAD_CAT_ID":31663,"ELEMENT_SET_NO":999,"REV_AT_EPOCH":451,"BSTAR":0.00049184,"MEAN_MOTION_DOT":4.576e-5,"MEAN_MOTION_DDOT":0},{"OBJECT_NAME":"FENGYUN 1C DEB","OBJECT_ID":"1999-025CBW","EPOCH":"2026-03-01T18:23:22.526016","MEAN_MOTION":14.10446028,"ECCENTRICITY":0.01233295,"INCLINATION":98.7591,"RA_OF_ASC_NODE":55.2218,"ARG_OF_PERICENTER":294.9686,"MEAN_ANOMALY":63.8715,"EPHEMERIS_TYPE":0,"CLASSIFICATION_TYPE":"U","NORAD_CAT_ID":31664,"ELEMENT_SET_NO":999,"REV_AT_EPOCH":97115,"BSTAR":0.0004888802,"MEAN_MOTION_DOT":8.89e-6,"MEAN_MOTION_DDOT":0},{"OBJECT_NAME":"FENGYUN 1C DEB","OBJECT_ID":"1999-025CBX","EPOCH":"2026-03-03T01:35:57.869664","MEAN_MOTION":13.85069058,"ECCENTRICITY":0.01851872,"INCLINATION":98.445,"RA_OF_ASC_NODE":102.1088,"ARG_OF_PERICENTER":326.9297,"MEAN_ANOMALY":32.039,"EPHEMERIS_TYPE":0,"CLASSIFICATION_TYPE":"U","NORAD_CAT_ID":31665,"ELEMENT_SET_NO":999,"REV_AT_EPOCH":94303,"BSTAR":0.0011932819,"MEAN_MOTION_DOT":1.505e-5,"MEAN_MOTION_DDOT":0},{"OBJECT_NAME":"FENGYUN 1C DEB","OBJECT_ID":"1999-025CBY","EPOCH":"2026-03-01T15:43:24.581568","MEAN_MOTION":14.89915356,"ECCENTRICITY":0.00253072,"INCLINATION":98.6547,"RA_OF_ASC_NODE":221.3721,"ARG_OF_PERICENTER":251.4526,"MEAN_ANOMALY":108.3939,"EPHEMERIS_TYPE":0,"CLASSIFICATION_TYPE":"U","NORAD_CAT_ID":31666,"ELEMENT_SET_NO":999,"REV_AT_EPOCH":98444,"BSTAR":0.0045416916,"MEAN_MOTION_DOT":0.00044161,"MEAN_MOTION_DDOT":0},{"OBJECT_NAME":"FENGYUN 1C DEB","OBJECT_ID":"1999-025CBZ","EPOCH":"2026-03-02T09:36:29.734560","MEAN_MOTION":14.23614222,"ECCENTRICITY":0.00502209,"INCLINATION":99.0805,"RA_OF_ASC_NODE":280.9743,"ARG_OF_PERICENTER":218.6059,"MEAN_ANOMALY":141.1523,"EPHEMERIS_TYPE":0,"CLASSIFICATION_TYPE":"U","NORAD_CAT_ID":31667,"ELEMENT_SET_NO":999,"REV_AT_EPOCH":57126,"BSTAR":0.00028679216,"MEAN_MOTION_DOT":6.15e-6,"MEAN_MOTION_DDOT":0},{"OBJECT_NAME":"FENGYUN 1C DEB","OBJECT_ID":"1999-025CCE","EPOCH":"2026-02-20T23:45:09.199584","MEAN_MOTION":14.52342816,"ECCENTRICITY":0.01049675,"INCLINATION":98.9581,"RA_OF_ASC_NODE":249.2139,"ARG_OF_PERICENTER":130.2562,"MEAN_ANOMALY":230.787,"EPHEMERIS_TYPE":0,"CLASSIFICATION_TYPE":"U","NORAD_CAT_ID":31672,"ELEMENT_SET_NO":999,"REV_AT_EPOCH":65890,"BSTAR":0.0014030025,"MEAN_MOTION_DOT":6.086e-5,"MEAN_MOTION_DDOT":0},{"OBJECT_NAME":"FENGYUN 1C DEB","OBJECT_ID":"1999-025CCF","EPOCH":"2026-02-28T12:28:37.942176","MEAN_MOTION":14.32081921,"ECCENTRICITY":0.01243399,"INCLINATION":99.3739,"RA_OF_ASC_NODE":265.2327,"ARG_OF_PERICENTER":184.4282,"MEAN_ANOMALY":175.5809,"EPHEMERIS_TYPE":0,"CLASSIFICATION_TYPE":"U","NORAD_CAT_ID":31673,"ELEMENT_SET_NO":999,"REV_AT_EPOCH":66004,"BSTAR":0.00026650421,"MEAN_MOTION_DOT":7.27e-6,"MEAN_MOTION_DDOT":0},{"OBJECT_NAME":"FENGYUN 1C DEB","OBJECT_ID":"1999-025CCL","EPOCH":"2026-03-02T02:10:45.551136","MEAN_MOTION":14.54771618,"ECCENTRICITY":0.02548865,"INCLINATION":98.7996,"RA_OF_ASC_NODE":179.3908,"ARG_OF_PERICENTER":146.559,"MEAN_ANOMALY":215.1998,"EPHEMERIS_TYPE":0,"CLASSIFICATION_TYPE":"U","NORAD_CAT_ID":31678,"ELEMENT_SET_NO":999,"REV_AT_EPOCH":97992,"BSTAR":0.002223266,"MEAN_MOTION_DOT":0.00014725,"MEAN_MOTION_DDOT":0},{"OBJECT_NAME":"FENGYUN 1C DEB","OBJECT_ID":"1999-025CCN","EPOCH":"2026-03-03T04:14:31.235424","MEAN_MOTION":15.31523116,"ECCENTRICITY":0.00639167,"INCLINATION":99.8382,"RA_OF_ASC_NODE":200.2028,"ARG_OF_PERICENTER":23.6376,"MEAN_ANOMALY":336.7771,"EPHEMERIS_TYPE":0,"CLASSIFICATION_TYPE":"U","NORAD_CAT_ID":31680,"ELEMENT_SET_NO":999,"REV_AT_EPOCH":1400,"BSTAR":0.0014039105,"MEAN_MOTION_DOT":0.00045665,"MEAN_MOTION_DDOT":0},{"OBJECT_NAME":"FENGYUN 1C DEB","OBJECT_ID":"1999-025CCT","EPOCH":"2026-03-03T21:54:50.160384","MEAN_MOTION":14.09691355,"ECCENTRICITY":0.0016526,"INCLINATION":98.7241,"RA_OF_ASC_NODE":89.6632,"ARG_OF_PERICENTER":2.4355,"MEAN_ANOMALY":357.6894,"EPHEMERIS_TYPE":0,"CLASSIFICATION_TYPE":"U","NORAD_CAT_ID":31685,"ELEMENT_SET_NO":999,"REV_AT_EPOCH":96233,"BSTAR":0.00013966,"MEAN_MOTION_DOT":2.03e-6,"MEAN_MOTION_DDOT":0},{"OBJECT_NAME":"FENGYUN 1C DEB","OBJECT_ID":"1999-025CCU","EPOCH":"2026-03-04T00:51:39.154176","MEAN_MOTION":14.73652792,"ECCENTRICITY":0.0276928,"INCLINATION":98.137,"RA_OF_ASC_NODE":139.9789,"ARG_OF_PERICENTER":189.6525,"MEAN_ANOMALY":294.7628,"EPHEMERIS_TYPE":0,"CLASSIFICATION_TYPE":"U","NORAD_CAT_ID":31686,"ELEMENT_SET_NO":999,"REV_AT_EPOCH":99015,"BSTAR":0.0013538,"MEAN_MOTION_DOT":0.0001638,"MEAN_MOTION_DDOT":0},{"OBJECT_NAME":"FENGYUN 1C DEB","OBJECT_ID":"1999-025CCW","EPOCH":"2026-03-03T14:22:03.901728","MEAN_MOTION":14.02352636,"ECCENTRICITY":0.0074039,"INCLINATION":98.949,"RA_OF_ASC_NODE":120.3048,"ARG_OF_PERICENTER":277.2736,"MEAN_ANOMALY":82.0019,"EPHEMERIS_TYPE":0,"CLASSIFICATION_TYPE":"U","NORAD_CAT_ID":31688,"ELEMENT_SET_NO":999,"REV_AT_EPOCH":96411,"BSTAR":0.00017507,"MEAN_MOTION_DOT":2.31e-6,"MEAN_MOTION_DDOT":0},{"OBJECT_NAME":"FENGYUN 1C DEB","OBJECT_ID":"1999-025CCZ","EPOCH":"2026-03-02T11:11:37.554432","MEAN_MOTION":14.27088007,"ECCENTRICITY":0.00567857,"INCLINATION":98.8747,"RA_OF_ASC_NODE":154.0347,"ARG_OF_PERICENTER":10.5746,"MEAN_ANOMALY":349.6614,"EPHEMERIS_TYPE":0,"CLASSIFICATION_TYPE":"U","NORAD_CAT_ID":31691,"ELEMENT_SET_NO":999,"REV_AT_EPOCH":65248,"BSTAR":0.0020021092,"MEAN_MOTION_DOT":4.921e-5,"MEAN_MOTION_DDOT":0},{"OBJECT_NAME":"FENGYUN 1C DEB","OBJECT_ID":"1999-025CDA","EPOCH":"2026-02-27T22:51:55.948032","MEAN_MOTION":14.19453514,"ECCENTRICITY":0.0086108,"INCLINATION":99.1795,"RA_OF_ASC_NODE":63.1391,"ARG_OF_PERICENTER":222.845,"MEAN_ANOMALY":136.5993,"EPHEMERIS_TYPE":0,"CLASSIFICATION_TYPE":"U","NORAD_CAT_ID":31692,"ELEMENT_SET_NO":999,"REV_AT_EPOCH":59304,"BSTAR":0.0022802,"MEAN_MOTION_DOT":4.936e-5,"MEAN_MOTION_DDOT":0}]
