FENGYUN 1C DEB          
1 31660U 99025CBS 26062.79097684  .00002511  00000+0  98643-3 0  9998
2 31660  98.5092  66.9619 0100254 303.9676  55.2008 14.27455606 90722
FENGYUN 1C DEB          
1 31661U 99025CBT 26062.17423333  .00002978  00000+0  12448-2 0  9990
2 31661  98.8514 147.0882 0055349 352.8129  71.6030 14.26073036968596
FENGYUN 1C DEB          
1 31663U 99025CBV 26061.52656929  .00004576  00000+0  49184-3 0  9993
2 31663  98.8384 341.9537 0189178 346.9452  12.6895 14.76889393  4519
FENGYUN 1C DEB          
1 31664U 99025CBW 26060.76623294  .00000889  00000+0  48888-3 0  9991
2 31664  98.7591  55.2218 0123329 294.9686  63.8715 14.10446028971151
FENGYUN 1C DEB          
1 31665U 99025CBX 26062.06664201  .00001505  00000+0  11933-2 0  9996
2 31665  98.4450 102.1088 0185187 326.9297  32.0390 13.85069058943032
FENGYUN 1C DEB          
1 31666U 99025CBY 26060.65514562  .00044161  00000+0  45417-2 0  9993
2 31666  98.6547 221.3721 0025307 251.4526 108.3939 14.89915356984446
FENGYUN 1C DEB          
1 31667U 99025CBZ 26061.40034415  .00000615  00000+0  28679-3 0  9990
2 31667  99.0805 280.9743 0050220 218.6059 141.1523 14.23614222571264
FENGYUN 1C DEB          
1 31672U 99025CCE 26051.98968981  .00006086  00000+0  14030-2 0  9995
2 31672  98.9581 249.2139 0104967 130.2562 230.7870 14.52342816658908
FENGYUN 1C DEB          
1 31673U 99025CCF 26059.51988359  .00000727  00000+0  26650-3 0  9992
2 31673  99.3739 265.2327 0124339 184.4282 175.5809 14.32081921660042
FENGYUN 1C DEB          
1 31678U 99025CCL 26061.09080499  .00014725  00000+0  22233-2 0  9996
2 31678  98.7996 179.3908 0254886 146.5590 215.1998 14.54771618979920
FENGYUN 1C DEB          
1 31680U 99025CCN 26062.17675041  .00045665  00000+0  14039-2 0  9994
2 31680  99.8382 200.2028 0063916  23.6376 336.7771 15.31523116 14002
FENGYUN 1C DEB          
1 31685U 99025CCT 26062.91308056  .00000203  00000+0  13966-3 0  9998
2 31685  98.7241  89.6632 0016526   2.4355 357.6894 14.09691355962337
FENGYUN 1C DEB          
1 31686U 99025CCU 26063.03586984  .00016380  00000+0  13538-2 0  9998
2 31686  98.1370 139.9789 0276928 189.6525 294.7628 14.73652792990158
FENGYUN 1C DEB          
1 31688U 99025CCW 26062.59865627  .00000231  00000+0  17507-3 0  9993
2 31688  98.9490 120.3048 0074039 277.2736  82.0019 14.02352636964115
FENGYUN 1C DEB          
1 31691U 99025CCZ 26061.46640688  .00004921  00000+0  20021-2 0  9994
2 31691  98.8747 154.0347 0056785  10.5746 349.6614 14.27088007652488
FENGYUN 1C DEB          
1 31692U 99025CDA 26058.95273088  .00004936  00000+0  22802-2 0  9996
2 31692  99.1795  63.1391 0086108 222.8450 136.5993 14.19453514593046
